{
  "type": "FeatureCollection",
  "features": [
    {
      "type": "Feature",
      "properties": {
        "norad_id": 66632,
        "name": "STARLINK-35973",
        "group": "last-30-days",
        "lat": -9.710015174590671,
        "lon": 125.07631393901791,
        "alt_km": 448.75988164734645,
        "timestamp": "2025-12-24T07:45:04.930841+00:00",
        "meta_object_name": "STARLINK-35973",
        "meta_object_id": "2025-271R",
        "meta_epoch": "2025-12-23T20:53:55.230432",
        "meta_mean_motion": 15.3964384,
        "meta_eccentricity": 0.00014608,
        "meta_inclination": 53.1592,
        "meta_ra_of_asc_node": 134.5786,
        "meta_arg_of_pericenter": 54.0913,
        "meta_mean_anomaly": 306.0227,
        "meta_ephemeris_type": 0,
        "meta_classification_type": "U",
        "meta_norad_cat_id": 66632,
        "meta_element_set_no": 999,
        "meta_rev_at_epoch": 588,
        "meta_bstar": 0.00086763253,
        "meta_mean_motion_dot": 0.00034489,
        "meta_mean_motion_ddot": 0,
        "tle_line1": "1 66632U 25271R   25357.87077813  .00034489  00000+0  86763-3 0  9993",
        "tle_line2": "2 66632  53.1592 134.5786 0001460  54.0913 306.0227 15.39643840  5881"
      },
      "geometry": {
        "type": "Point",
        "coordinates": [
          125.07631393901791,
          -9.710015174590671
        ]
      }
    },
    {
      "type": "Feature",
      "properties": {
        "norad_id": 66633,
        "name": "STARLINK-35948",
        "group": "last-30-days",
        "lat": -8.236863103631165,
        "lon": 126.21246816416499,
        "alt_km": 448.8735295265069,
        "timestamp": "2025-12-24T07:45:04.930853+00:00",
        "meta_object_name": "STARLINK-35948",
        "meta_object_id": "2025-271S",
        "meta_epoch": "2025-12-23T20:53:26.239776",
        "meta_mean_motion": 15.39641401,
        "meta_eccentricity": 3.207e-05,
        "meta_inclination": 53.1599,
        "meta_ra_of_asc_node": 134.576,
        "meta_arg_of_pericenter": 293.0532,
        "meta_mean_anomaly": 67.0439,
        "meta_ephemeris_type": 0,
        "meta_classification_type": "U",
        "meta_norad_cat_id": 66633,
        "meta_element_set_no": 999,
        "meta_rev_at_epoch": 592,
        "meta_bstar": 0.00074568042,
        "meta_mean_motion_dot": 0.00029564,
        "meta_mean_motion_ddot": 0,
        "tle_line1": "1 66633U 25271S   25357.87044259  .00029564  00000+0  74568-3 0  9990",
        "tle_line2": "2 66633  53.1599 134.5760 0000320 293.0532  67.0439 15.39641401  5922"
      },
      "geometry": {
        "type": "Point",
        "coordinates": [
          126.21246816416499,
          -8.236863103631165
        ]
      }
    },
    {
      "type": "Feature",
      "properties": {
        "norad_id": 66634,
        "name": "STARLINK-35967",
        "group": "last-30-days",
        "lat": 12.301969354299601,
        "lon": 141.80021028619322,
        "alt_km": 446.7571463990289,
        "timestamp": "2025-12-24T07:45:04.930864+00:00",
        "meta_object_name": "STARLINK-35967",
        "meta_object_id": "2025-271T",
        "meta_epoch": "2025-12-23T20:46:44.860800",
        "meta_mean_motion": 15.39629623,
        "meta_eccentricity": 7.859e-05,
        "meta_inclination": 53.1607,
        "meta_ra_of_asc_node": 134.5457,
        "meta_arg_of_pericenter": 213.2636,
        "meta_mean_anomaly": 146.8319,
        "meta_ephemeris_type": 0,
        "meta_classification_type": "U",
        "meta_norad_cat_id": 66634,
        "meta_element_set_no": 999,
        "meta_rev_at_epoch": 588,
        "meta_bstar": 0.0010725776,
        "meta_mean_motion_dot": 0.00042757,
        "meta_mean_motion_ddot": 0,
        "tle_line1": "1 66634U 25271T   25357.86579700  .00042757  00000+0  10726-2 0  9998",
        "tle_line2": "2 66634  53.1607 134.5457 0000785 213.2636 146.8319 15.39629623  5880"
      },
      "geometry": {
        "type": "Point",
        "coordinates": [
          141.80021028619322,
          12.301969354299601
        ]
      }
    },
    {
      "type": "Feature",
      "properties": {
        "norad_id": 66635,
        "name": "STARLINK-35955",
        "group": "last-30-days",
        "lat": 47.41888848834519,
        "lon": -173.04333264243076,
        "alt_km": 439.8322772193278,
        "timestamp": "2025-12-24T07:45:04.930874+00:00",
        "meta_object_name": "STARLINK-35955",
        "meta_object_id": "2025-271U",
        "meta_epoch": "2025-12-23T20:33:23.259744",
        "meta_mean_motion": 15.39628301,
        "meta_eccentricity": 0.00015054,
        "meta_inclination": 53.1618,
        "meta_ra_of_asc_node": 134.489,
        "meta_arg_of_pericenter": 92.2253,
        "meta_mean_anomaly": 267.8924,
        "meta_ephemeris_type": 0,
        "meta_classification_type": "U",
        "meta_norad_cat_id": 66635,
        "meta_element_set_no": 999,
        "meta_rev_at_epoch": 592,
        "meta_bstar": 0.0010050107,
        "meta_mean_motion_dot": 0.00040022,
        "meta_mean_motion_ddot": 0,
        "tle_line1": "1 66635U 25271U   25357.85651921  .00040022  00000+0  10050-2 0  9997",
        "tle_line2": "2 66635  53.1618 134.4890 0001505  92.2253 267.8924 15.39628301  5927"
      },
      "geometry": {
        "type": "Point",
        "coordinates": [
          -173.04333264243076,
          47.41888848834519
        ]
      }
    },
    {
      "type": "Feature",
      "properties": {
        "norad_id": 66636,
        "name": "STARLINK-35968",
        "group": "last-30-days",
        "lat": 31.822469698001946,
        "lon": 160.06513113348365,
        "alt_km": 442.47857636408753,
        "timestamp": "2025-12-24T07:45:04.930885+00:00",
        "meta_object_name": "STARLINK-35968",
        "meta_object_id": "2025-271V",
        "meta_epoch": "2025-12-23T20:40:04.403712",
        "meta_mean_motion": 15.39659771,
        "meta_eccentricity": 0.00010839,
        "meta_inclination": 53.1598,
        "meta_ra_of_asc_node": 134.5153,
        "meta_arg_of_pericenter": 75.8209,
        "meta_mean_anomaly": 284.2917,
        "meta_ephemeris_type": 0,
        "meta_classification_type": "U",
        "meta_norad_cat_id": 66636,
        "meta_element_set_no": 999,
        "meta_rev_at_epoch": 592,
        "meta_bstar": 0.00094849799,
        "meta_mean_motion_dot": 0.00037777,
        "meta_mean_motion_ddot": 0,
        "tle_line1": "1 66636U 25271V   25357.86116208  .00037777  00000+0  94850-3 0  9997",
        "tle_line2": "2 66636  53.1598 134.5153 0001083  75.8209 284.2917 15.39659771  5927"
      },
      "geometry": {
        "type": "Point",
        "coordinates": [
          160.06513113348365,
          31.822469698001946
        ]
      }
    },
    {
      "type": "Feature",
      "properties": {
        "norad_id": 66637,
        "name": "STARLINK-35953",
        "group": "last-30-days",
        "lat": 53.049063151717505,
        "lon": -133.04510241463117,
        "alt_km": 439.4854222402628,
        "timestamp": "2025-12-24T07:45:04.930897+00:00",
        "meta_object_name": "STARLINK-35953",
        "meta_object_id": "2025-271W",
        "meta_epoch": "2025-12-23T18:53:13.265376",
        "meta_mean_motion": 15.39655664,
        "meta_eccentricity": 5.471e-05,
        "meta_inclination": 53.1619,
        "meta_ra_of_asc_node": 134.7643,
        "meta_arg_of_pericenter": 93.4221,
        "meta_mean_anomaly": 266.6847,
        "meta_ephemeris_type": 0,
        "meta_classification_type": "U",
        "meta_norad_cat_id": 66637,
        "meta_element_set_no": 999,
        "meta_rev_at_epoch": 591,
        "meta_bstar": 0.0011113669,
        "meta_mean_motion_dot": 0.00044365,
        "meta_mean_motion_ddot": 0,
        "tle_line1": "1 66637U 25271W   25357.78695909  .00044365  00000+0  11114-2 0  9991",
        "tle_line2": "2 66637  53.1619 134.7643 0000547  93.4221 266.6847 15.39655664  5914"
      },
      "geometry": {
        "type": "Point",
        "coordinates": [
          -133.04510241463117,
          53.049063151717505
        ]
      }
    },
    {
      "type": "Feature",
      "properties": {
        "norad_id": 66638,
        "name": "STARLINK-35972",
        "group": "last-30-days",
        "lat": 27.76327723993424,
        "lon": -71.10999687126635,
        "alt_km": 443.5871997901704,
        "timestamp": "2025-12-24T07:45:04.930907+00:00",
        "meta_object_name": "STARLINK-35972",
        "meta_object_id": "2025-271X",
        "meta_epoch": "2025-12-23T18:39:50.827968",
        "meta_mean_motion": 15.3964549,
        "meta_eccentricity": 4.594e-05,
        "meta_inclination": 53.1612,
        "meta_ra_of_asc_node": 134.7044,
        "meta_arg_of_pericenter": 83.4158,
        "meta_mean_anomaly": 276.6899,
        "meta_ephemeris_type": 0,
        "meta_classification_type": "U",
        "meta_norad_cat_id": 66638,
        "meta_element_set_no": 999,
        "meta_rev_at_epoch": 591,
        "meta_bstar": 0.0010278206,
        "meta_mean_motion_dot": 0.00040968,
        "meta_mean_motion_ddot": 0,
        "tle_line1": "1 66638U 25271X   25357.77767162  .00040968  00000+0  10278-2 0  9997",
        "tle_line2": "2 66638  53.1612 134.7044 0000459  83.4158 276.6899 15.39645490  5917"
      },
      "geometry": {
        "type": "Point",
        "coordinates": [
          -71.10999687126635,
          27.76327723993424
        ]
      }
    }
  ]
}